ALD0012 17.25  0.15 K162A   0.99681   37.31949  112.25125    2.93343  0.0253318  0.19723722   2.9228742    FO 161023     4   1 58.1 min  0.20         Find_Orb   0000 ALD0012                     20160209
ALD0013 17.69  0.15 K162A   0.11343  160.83082  348.23772    4.93378  0.0392287  0.26891387   2.3771718    FO 161023     3   1 38.8 min  0.06         Find_Orb   0000 ALD0013                     20160209
ALD0014 17.75  0.15 K162A 359.94588   31.77427  117.82733    6.38952  0.0421508  0.26768807   2.3844234    FO 161023     4   1 58.1 min  0.20         Find_Orb   0000 ALD0014                     20160209
ASG0001 16.82  0.15 K163V 359.91488  243.58804  304.33233    9.18237  0.0527211  0.18898103   3.0073957    FO 161023     8   1 54.6 min  ****         Find_Orb   0000 ASG0001                     20160331
BHC0017 18.22  0.15 K162A 180.59083  315.34146   13.00413    2.15222  0.0539636  0.26333633   2.4106206    FO 161023     4   1 58.1 min  0.41         Find_Orb   0000 BHC0017                     20160209
BHC0018 17.61  0.15 K162A   0.05968   26.09542  122.74399    3.24205  0.1664390  0.18521642   3.0480100    FO 161023     3   1 58.1 min  0.14         Find_Orb   0000 BHC0018                     20160209
BHC0019 24.35  0.15 K162A  13.33479  319.00981  123.52028    1.07371  0.6075358  0.28161275   2.3051605    FO 161023     4   1 58.1 min  0.09         Find_Orb   0000 BHC0019                     20160209
BHC0020 19.57  0.15 K162A   0.11765  152.02187  356.64988    5.12033  0.2107122  0.26564996   2.3966036    FO 161023     3   1 38.6 min  0.15         Find_Orb   0000 BHC0020                     20160209
EBD0007 20.21  0.15 K1621 359.83582   22.84286  115.71970    3.40065  0.2475494  0.27955800   2.3164420    FO 161023     4   1 49.5 min  0.34         Find_Orb   0000 EBD0007                     20160201
EBD0008 16.87  0.15 K1621 179.89760  304.69031   17.08305    2.22141  0.1697517  0.25932350   2.4354252    FO 161023     3   1 33.0 min  0.16         Find_Orb   0000 EBD0008                     20160201
EBD0009 29.86  0.15 K1622  17.99207  346.15303  126.45849    0.15535  0.0516548  0.91614651   1.0499278    FO 161023     3   1 50.1 min  0.10         Find_Orb   0000 EBD0009                     20160202
EPM0185 17.39  0.15 K162A   0.11418  170.24899  338.08313    4.13076  0.0192032  0.27736506   2.3286357    FO 161023     3   1 38.8 min  0.07         Find_Orb   0000 EPM0185                     20160209
EPM0186 18.32  0.15 K162A   0.11112   17.04248  130.75253    3.05962  0.1358713  0.26585059   2.3953977    FO 161023     4   1 58.1 min  0.02         Find_Orb   0000 EPM0186                     20160209
EPM0187 18.66  0.15 K162A   0.33770   42.19698  107.38066    3.46863  0.0281378  0.27358379   2.3500430    FO 161023     3   1 58.1 min  0.11         Find_Orb   0000 EPM0187                     20160209
EPM0188 19.45  0.15 K162A   0.11886  157.30273  351.65454    5.62040  0.1037290  0.28082057   2.3094936    FO 161023     3   1 38.8 min  0.13         Find_Orb   0000 EPM0188                     20160209
EPM0189 20.80  0.15 K162A   0.12640   32.87476  114.63956    3.35709  0.2378582  0.28497613   2.2869871    FO 161023     3   1 38.6 min  0.51         Find_Orb   0000 EPM0189                     20160209
EPM0190 20.11  0.15 K162A   0.12721   28.71515  118.77038    4.02959  0.2086738  0.30150065   2.2026418    FO 161023     4   1 58.1 min  0.08         Find_Orb   0000 EPM0190                     20160209
EPM0192 18.59  0.15 K162A   0.12600  156.97849  352.57421    6.54494  0.0371781  0.26977526   2.3721090    FO 161023     4   1 58.1 min  0.06         Find_Orb   0000 EPM0192                     20160209
EPM0193 19.64  0.15 K162A   0.11884   53.95639   94.25327    2.66935  0.2061638  0.26794953   2.3828720    FO 161023     3   1 38.6 min  0.07         Find_Orb   0000 EPM0193                     20160209
EPM0194 18.25  0.15 K162A 179.88217  292.92177   37.68141    3.01582  0.0866998  0.27570046   2.3379993    FO 161023     4   1 58.1 min  0.27         Find_Orb   0000 EPM0194                     20160209
ESL0004 17.88  0.15 K1621 359.92086  160.40725  341.59463    3.26360  0.1181173  0.20155319   2.8809978    FO 161023     3   1 32.9 min  0.14         Find_Orb   0000 ESL0004                     20160201
FSG1603 19.99  0.15 K162A   0.11758   95.88262   51.93005    2.39843  0.2368262  0.25257585   2.4786098    FO 161023     3   1 58.1 min  0.08         Find_Orb   0000 FSG1603                     20160209
FSG1604 18.51  0.15 K162A   0.74548  149.91685  358.59253    5.37782  0.0125636  0.28018664   2.3129759    FO 161023     4   1 58.1 min  0.17         Find_Orb   0000 FSG1604                     20160209
FSG1605 19.40  0.15 K162A   0.08166  150.62037  357.15075    4.56725  0.2115457  0.26522928   2.3991371    FO 161023     4   1 58.1 min  0.12         Find_Orb   0000 FSG1605                     20160209
GES0033 17.67  0.15 K162A 180.05455  209.70067  119.72964    3.99512  0.0288990  0.25399931   2.4693407    FO 161023     4   1 58.1 min  0.08         Find_Orb   0000 GES0033                     20160209
HGB0001 17.39  0.15 K1621   0.32058    3.78742  137.69637   11.53930  0.0254828  0.19719058   2.9233352    FO 161023     4   1 49.5 min  0.16         Find_Orb   0000 HGB0001                     20160201
HGB0005 27.81  0.15 K1623  30.51459  339.56958  114.76606    1.20488  0.1338483  0.81124499   1.1385917    FO 161023     4   1 51.4 min  0.12         Find_Orb   0000 HGB0005                     20160203
HGB4002 20.10  0.15 K1623 359.90564   77.81224   64.17641    6.18517  0.2306749  0.28901454   2.2656331    FO 161023     4   1 51.4 min  0.24         Find_Orb   0000 HGB4002                     20160203
HGB4003 19.95  0.15 K1623 359.88742   89.20324   52.77723    6.04177  0.2092634  0.30116363   2.2042848    FO 161023     4   1 51.4 min  0.42         Find_Orb   0000 HGB4003                     20160203
HGB4004 19.68  0.15 K1623 359.68840   45.92751   99.46216    7.53734  0.1999732  0.27109066   2.3644294    FO 161023     4   1 51.5 min  0.83         Find_Orb   0000 HGB4004                     20160203
HGB4005 18.58  0.15 K1623 357.68767   17.07626  131.03157   21.60711  0.0335219  0.35996568   1.9571705    FO 161023     4   1 51.5 min  1.63         Find_Orb   0000 HGB4005                     20160203
HGB4006 19.01  0.15 K162A   0.09563   12.52673  136.11693    5.13816  0.1174534  0.27439509   2.3454085    FO 161023     4   1 58.1 min  0.75         Find_Orb   0000 HGB4006                     20160209
HGB4007 17.39  0.15 K162A   0.09958   21.07746  129.20889    8.70133  0.1858968  0.17876916   3.1208602    FO 161023     4   1 58.1 min  0.04         Find_Orb   0000 HGB4007                     20160209
HGB4008 20.02  0.15 K162A   0.14600  111.40059   36.32587    2.74342  0.2024097  0.26985247   2.3716565    FO 161023     4   1 58.1 min  0.21         Find_Orb   0000 HGB4008                     20160209
HGB4009 21.23  0.15 K162A  24.87149  340.13694  121.84294    5.06390  0.2898398  0.30133784   2.2034351    FO 161023     3   1 38.8 min  0.30         Find_Orb   0000 HGB4009                     20160209
HGB4010 18.97  0.15 K162A   0.09342   77.53987   71.00996    2.68405  0.1429281  0.26260065   2.4151207    FO 161023     3   1 58.1 min  0.16         Find_Orb   0000 HGB4010                     20160209
HGB4011 18.93  0.15 K162A 358.88881   27.97961  122.72630    6.55503  0.0468337  0.26573218   2.3961093    FO 161023     4   1 58.1 min  0.67         Find_Orb   0000 HGB4011                     20160209
JMB0808 18.72  0.15 K162A   0.09021   79.23717   69.11222    0.95582  0.1496554  0.25951497   2.4342272    FO 161023     4   1 58.1 min  0.09         Find_Orb   0000 JMB0808                     20160209
JMB0809 16.17  0.15 K162A 180.10823  324.30253    7.21643    2.32605  0.2169272  0.18878357   3.0094925    FO 161023     4   1 58.1 min  0.21         Find_Orb   0000 JMB0809                     20160209
JMB0810 15.98  0.15 K162A 180.08506  210.09203  120.99570    2.42230  0.0678183  0.18834207   3.0141937    FO 161023     3   1 38.6 min  0.10         Find_Orb   0000 JMB0810                     20160209
JMB0811 16.93  0.15 K162A   0.09530   82.17070   68.19667    2.72561  0.0306514  0.19562366   2.9389247    FO 161023     4   1 58.1 min  0.09         Find_Orb   0000 JMB0811                     20160209
JMB0812 17.83  0.15 K162A 180.72103  233.79652   95.35000    3.10546  0.0298201  0.25433991   2.4671357    FO 161023     4   1 58.1 min  0.17         Find_Orb   0000 JMB0812                     20160209
JMB0813 17.68  0.15 K162A   0.11881   95.56533   53.47990    2.25155  0.0404207  0.26841361   2.3801246    FO 161023     3   1 38.6 min  0.12         Find_Orb   0000 JMB0813                     20160209
OBB0007 18.84  0.15 K162A   0.06583  107.12050   41.32843    2.08088  0.1546755  0.25722025   2.4486833    FO 161023     4   1 58.1 min  0.10         Find_Orb   0000 OBB0007                     20160209
OBB0008 17.22  0.15 K162A   0.08455   48.79473  101.77026    3.26295  0.0611106  0.18647606   3.0342684    FO 161023     3   1 38.8 min  0.08         Find_Orb   0000 OBB0008                     20160209
OBB0009 17.40  0.15 K162A 180.35194  330.42431  359.16158    4.49971  0.1237413  0.28991621   2.2609331    FO 161023     4   1 58.1 min  0.23         Find_Orb   0000 OBB0009                     20160209
OBB0010 17.46  0.15 K162A 180.38821  332.64335  356.88754    4.80236  0.0979740  0.28000193   2.3139929    FO 161023     4   1 58.1 min  0.24         Find_Orb   0000 OBB0010                     20160209
PCH0016 16.34  0.15 K162B 179.88683  260.47509   91.51537   13.26239  0.0786106  0.22961422   2.6412136    FO 161023     3   1 32.8 min  0.87         Find_Orb   0000 PCH0016                     20160211
PLF3001 17.02  0.15 K1623 359.87706   34.17160  113.53420   13.11085  0.1115466  0.23913058   2.5706679    FO 161023     4   1 51.5 min  0.09         Find_Orb   0000 PLF3001                     20160203
